{
  "type": "FeatureCollection",
  "features": [
    {"type":"Feature","properties":{"nombre":"Punto de ejemplo A","muestras":12},"geometry":{"type":"Point","coordinates":[-5.845,43.36]}},
    {"type":"Feature","properties":{"nombre":"Punto de ejemplo B","muestras":8},"geometry":{"type":"Point","coordinates":[-5.84,43.365]}},
    {"type":"Feature","properties":{"nombre":"Línea de ejemplo, no es una ruta calculada"},"geometry":{"type":"LineString","coordinates":[[-5.85,43.36],[-5.84,43.365]]}},
    {"type":"Feature","properties":{"nombre":"Parcela ficticia de demostración","cantidad":3},"geometry":{"type":"Polygon","coordinates":[[[-5.855,43.355],[-5.835,43.355],[-5.835,43.37],[-5.855,43.37],[-5.855,43.355]]]}}
  ]
}
